NUSAT-1 (FRESCO)        
1 41557U 16033B   22292.80741742  .00022887  00000+0  61151-3 0  9998
2 41557  97.3890  30.9720 0009024 292.1713 166.7966 15.38055924356479
BEESAT-4                
1 41619U 16040W   22292.55557617  .00018487  00000+0  54829-3 0  9998
2 41619  97.2026 340.0371 0009159  42.0356 318.1589 15.34832370339737
CAS-2T & KS-1Q          
1 41847U 16066G   22292.20791958  .00001489  00000+0  23257-3 0  9994
2 41847  98.5380 356.6810 0362753 199.4515 159.2526 14.38805483312143
NAYIF-1 (EO-88)         
1 42017U 17008BX  22292.76248435  .00022230  00000+0  57518-3 0  9993
2 42017  97.2552 357.3002 0005206 148.4522 211.7037 15.39076597316165
ZHUHAI-1 02 (CAS-4B)    
1 42759U 17034B   22292.68994365  .00007422  00000+0  42621-3 0  9991
2 42759  43.0186   7.4966 0010410 348.6771 147.4210 15.12881570295165
ZHUHAI-1 01 (CAS-4A)    
1 42761U 17034D   22292.71991301  .00007412  00000+0  42458-3 0  9992
2 42761  43.0190   6.0277 0010764 348.4022 154.5000 15.12970355295179
MAX VALIER SAT          
1 42778U 17036P   22292.89043484  .00010100  00000+0  35957-3 0  9995
2 42778  97.1931 329.7783 0008725 237.0525 122.9877 15.29101587295905
RADFXSAT (FOX-1B)       
1 43017U 17073E   22292.55368338  .00003208  00000+0  23980-3 0  9998
2 43017  97.6568 181.6292 0246564 140.8446 221.0901 14.82307946265496
FOX-1D (AO-92)          
1 43137U 18004AC  22292.19223108  .00013253  00000+0  43180-3 0  9996
2 43137  97.3583   6.3468 0005985 284.3871  75.6706 15.31938724265278
DIWATA-2B               
1 43678U 18084H   22292.90070161  .00001758  00000+0  17735-3 0  9996
2 43678  97.9890  67.7708 0008680 230.3326 129.7104 14.92405504216410
ES'HAIL 2               
1 43700U 18090A   22292.84836432  .00000147  00000+0  00000+0 0  9997
2 43700   0.0144 249.5658 0002740 353.0880 116.8857  1.00273343 14277
FOX-1CLIFF (AO-95)      
1 43770U 18099N   22292.40675826  .00003364  00000+0  29642-3 0  9994
2 43770  97.6091 355.4952 0012873 213.7098 146.3306 14.97057834211554
ITASAT 1                
1 43786U 18099AE  22292.79189803  .00003032  00000+0  26721-3 0  9995
2 43786  97.6103 356.8516 0014139 205.1593 154.8942 14.97113400211651
JY1SAT (JO-97)          
1 43803U 18099AX  22292.83054849  .00002749  00000+0  23881-3 0  9999
2 43803  97.6065 356.6891 0013958 206.6067 153.4441 14.97751347211682
UWE-4                   
1 43880U 18111E   22292.53928997  .00003688  00000+0  30985-3 0  9996
2 43880  97.6549 196.6554 0010173 260.0612  99.9463 14.98879457208282
NEXUS (FO-99)           
1 43937U 19003F   22292.85565980  .00015937  00000+0  48433-3 0  9991
2 43937  97.1208 321.5273 0020795  71.1286 289.2210 15.33912832209020
PSAT2 (NO-104)          
1 44354U 19036R   22292.54777841  .00088830 -47120-5  56616-3 0  9993
2 44354  28.5240  29.2236 0172684 304.5164  53.9244 15.56932856183906
JAISAT-1                
1 44419U 19038F   22292.47959480  .00011627  00000+0  54886-3 0  9996
2 44419  97.6503 263.8501 0020571  66.0353 294.3032 15.19421252181877
DUCHIFAT-3              
1 44854U 19089C   22292.82094671  .00006584  00000+0  49846-3 0  9992
2 44854  36.9648  82.6271 0006101 158.5899 314.6557 15.01986814156637
CAS-6 (TIANQIN 1)       
1 44881U 19093C   22292.82848276  .00001081  00000+0  14306-3 0  9995
2 44881  97.8843  10.2085 0015780 137.4964 222.7459 14.81880145153197
RS-44 & BREEZE-KM R/B   
1 44909U 19096E   22292.34457700  .00000022  00000+0  42142-4 0  9998
2 44909  82.5200 147.9898 0218001  30.2882 331.0610 12.79715965131355
ORBITAL FACTORY 2 (OF-2)
1 45113U 19071C   22292.21630959  .00045745  00000+0  71963-3 0  9997
2 45113  51.6347 167.6107 0008375 250.0644 109.9445 15.53104489152554
HUSKYSAT-1 (HO-107)     
1 45119U 19071J   22292.90751591  .00033703  00000+0  57176-3 0  9996
2 45119  51.6357 165.4423 0008379 250.9399 109.0683 15.51141205152637
BY70-2                  
1 45857U 20042B   22292.92076175  .00012538  00000+0  16028-2 0  9998
2 45857  97.9481   8.6462 0011098  77.6337 282.6058 14.81482948123878
SALSAT                  
1 46495U 20068K   22292.58085169  .00003179  00000+0  22737-3 0  9996
2 46495  97.7399 234.0138 0015335 211.6795 148.3509 15.05103418112858
BY70-3                  
1 46839U 20079N   22292.82774789  .00042361  00000+0  79903-3 0  9993
2 46839  97.1846   3.6558 0004646 225.9486 200.5879 15.48352204109443
RADFXSAT-2 (AO-109)     
1 47311U 21002C   22292.61793363  .00012537  00000+0  46388-3 0  9995
2 47311  60.6840 254.1989 0036365  56.1650 304.2892 15.27464433 97414
UVSQ-SAT                
1 47438U 21006AB  22292.40949964  .00007293  00000+0  36977-3 0  9992
2 47438  97.4234 348.8863 0011093 197.1460 162.9401 15.17191811 96068
DIY-1 (ARDUIQUBE)       
1 47963U 21022AH  22292.23841170  .00024246  00000+0  11967-2 0  9992
2 47963  97.5178 192.3743 0018341  68.8997 291.4195 15.17738724 85695
XW-3 (CAS-9)            
1 50466U 21131B   22292.88601290  .00000277  00000+0  10515-3 0  9990
2 50466  98.5727  10.0326 0005555 132.4780 227.6877 14.38552579 42800
TEVEL-3                 
1 50988U 22002E   22292.79108140  .00012518  00000+0  65043-3 0  9990
2 50988  97.4682 357.7365 0009206   2.9038  92.7471 15.16191749 42249
TEVEL-8                 
1 50989U 22002F   22292.80062142  .00012306  00000+0  64050-3 0  9996
2 50989  97.4707 357.7782 0008979   1.8280  94.3846 15.16135732 42248
TEVEL-5                 
1 50998U 22002Q   22292.83680065  .00012823  00000+0  65624-3 0  9991
2 50998  97.4677 357.9506 0009994 356.5669  95.4546 15.16714142 42268
TEVEL-6                 
1 50999U 22002R   22292.83608458  .00012869  00000+0  65845-3 0  9993
2 50999  97.4679 357.9476 0010006 356.2560  95.8538 15.16719806 42267
TEVEL-1                 
1 51013U 22002AF  22292.79534443  .00012360  00000+0  64285-3 0  9991
2 51013  97.4686 357.7123 0008939   2.4754  92.8147 15.16161996 42249
TEVEL-7                 
1 51062U 22002CG  22292.80231613  .00012317  00000+0  64116-3 0  9995
2 51062  97.4705 357.7634 0008916   1.5585  93.1916 15.16131236 42241
TEVEL-4                 
1 51063U 22002CH  22292.81139485  .00012160  00000+0  63332-3 0  9996
2 51063  97.4697 357.7649 0008924   1.2701 136.1505 15.16116765 42246
TEVEL-2                 
1 51069U 22002CP  22292.86129716  .00012365  00000+0  64269-3 0  9990
2 51069  97.4680 357.7891 0008793   3.0876 106.9051 15.16186293 42255
GREENCUBE               
1 53106U 22080B   22291.96147202 -.00000003  00000+0  00000+0 0  9996
2 53106  70.1713  43.5209 0008810 236.5247 123.4571  6.42557698  6253
YUZGU 9 (RS3S)          
1 53308U 98067TT  22292.92407158  .00074243  00000+0  91947-3 0  9994
2 53308  51.6382  76.2195 0005184 317.3299  42.7291 15.59385299 14105
YUZGU 7 (RS1S)          
1 53309U 98067TU  22292.85274149  .00074889  00000+0  91498-3 0  9996
2 53309  51.6376  76.4895 0005272 324.6629  35.4014 15.59738039 14043
YUZGU 11 (RS5S)         
1 53310U 98067TV  22292.85926537  .00072391  00000+0  89619-3 0  9991
2 53310  51.6379  76.5369 0004881 324.2251  35.8414 15.59407758 14079
YUZGU 12 (RS6S)         
1 53311U 98067TW  22292.90730283  .00073379  00000+0  88614-3 0  9990
2 53311  51.6374  76.1030 0005588 311.8491  48.2025 15.60050902 14106
TSIOLKOVSKY-RYAZAN 1 (*)
1 53312U 98067TX  22292.85092010  .00075111  00000+0  91778-3 0  9995
2 53312  51.6383  76.4803 0005245 327.7168  32.3504 15.59734555 14034
TSIOLKOVSKY-RYAZAN 2 (*)
1 53313U 98067TY  22292.84878608  .00073405  00000+0  89808-3 0  9995
2 53313  51.6383  76.4665 0004760 325.4455  34.6228 15.59713531 14080
YUZGU 10 (RS4S)         
1 53321U 98067TZ  22292.85780993  .00073720  00000+0  90683-3 0  9997
2 53321  51.6380  76.5272 0005191 320.6064  39.4551 15.59566928 14081
RS29S (SXC3-2110 CYCLO*)
1 53373U 22096D   22292.77600029  .00016469  00000+0  64303-3 0  9992
2 53373  97.4275 193.7292 0000987  56.7748  31.9363 15.25974359 10894
RS32S (SXC3-212 MONITO*)
1 53374U 22096E   22292.82814988  .00016562  00000+0  64435-3 0  9990
2 53374  97.4268 193.7918 0000853  77.5065 326.0591 15.26092489 10906
RS34S (SXC3-218 KUZBAS*)
1 53375U 22096F   22292.83578756  .00013285  00000+0  52121-3 0  9990
2 53375  97.4281 193.7935 0000733  83.5735 346.7733 15.25862851 10903
RS23S (SXC3-21 UTMN)    
1 53376U 22096G   22292.77219462  .00013559  00000+0  53125-3 0  9999
2 53376  97.4277 193.7345 0001010  66.7235  22.4700 15.25902439 10898
RS28S (SXC3-214 MIET-A*)
1 53377U 22096H   22292.77094008  .00013828  00000+0  54148-3 0  9992
2 53377  97.4278 193.7375 0000765  54.0220  35.3301 15.25917383 10897
RS26S (KAI-1)           
1 53378U 22096J   22292.83399442  .00011780  00000+0  46328-3 0  9996
2 53378  97.4279 193.7979 0000665  76.4846 356.0429 15.25811504 10904
RS19S (SXC3-219 ISOI)   
1 53381U 22096M   22292.81493154  .00013823  00000+0  53357-3 0  9993
2 53381  97.4270 193.8267 0003833 168.6362 277.3157 15.26388547 10907
RS21S (CUBESX-HSE-2)    
1 53383U 22096P   22292.87437822  .00013742  00000+0  53010-3 0  9997
2 53383  97.4284 193.8916 0004206 168.6253 255.7029 15.26412144 10919
RS30S (SXC3-217 SIREN)  
1 53384U 22096Q   22292.87449817  .00012973  00000+0  50125-3 0  9994
2 53384  97.4280 193.8925 0004295 168.8927 256.1800 15.26370074 10911
RS20S (GEOSCAN-EDELVEIS)
1 53385U 22096R   22292.86139095  .00017149  00000+0  65078-3 0  9991
2 53385  97.4278 193.9089 0004683 169.2194 255.4731 15.26903070 10949
RS33S (SXC3-215 VIZARD) 
1 53386U 22096S   22292.84628171  .00020767  00000+0  77444-3 0  9998
2 53386  97.4284 193.9302 0004804 172.3755 252.9232 15.27441014 10931
CUTE-1 (CO-55)          
1 27844U 03031E   22292.92728323  .00000302  00000+0  15491-3 0  9992
2 27844  98.6813 298.7508 0010961 100.5946 259.6467 14.22518658  1577
CUBESAT XI-IV (CO-57)   
1 27848U 03031J   22292.50718631  .00000261  00000+0  13738-3 0  9997
2 27848  98.6856 298.8290 0010755 114.7865 245.4433 14.22066252  1344
